PW-SAT2-11              
1 43761U 18099D   18339.62555799  .00000107  00000-0  15093-4 0  9990
2 43761  97.7700  48.7616 0012391 251.1738 108.8155 14.94954902   272
PW-SAT2-1               
1 43751U 18097A   18337.80285382 0.00000000  00000-0  00000-0 0  9993
2 43751  97.6928  46.9087 0014761 280.4519   0.8181 14.96282985    07
PW-SAT2-2               
1 43814U 18099BJ  18350.20187188 -.00000172  00000-0 -10478-4 0  9995
2 43814  97.7665  59.2281 0012190 222.9069 137.1190 14.94845875  1257
PW-SAT2-4
1 43814U 18099BJ  18350.20187188 -.00000172  00000-0 -10478-4 0  9995
2 43814  97.7665  59.2281 0012190 222.9069 137.1190 14.94845875  1257
PW-SAT2-6               
1 43814U 18099BJ  19001.33378225  .00015087  00000-0  13822-2 0  9990
2 43814  97.7640  75.1978 0013864 169.7197 190.5345 14.94943838  3669
PW-SAT2-7               
1 43814U 18099BJ  19001.93616623 +.00012233 +00000-0 +11220-2 0  9993
2 43814 097.7632 075.7927 0013766 168.5432 191.6137 14.94954494003751
PW-SAT2-5               
1 43814U 18099BJ  18350.20187188 -.00000172  00000-0 -10478-4 0  9995
2 43814  97.7665  59.2281 0012190 222.9069 137.1190 14.94845875  1257
